start=new Date('2022-04-24T00:00:00.000Z').valueOf();
sats=[{"MEAN_MOTION":"15.06390171","INCLINATION":"53.0558","TIME_SYSTEM":"UTC","REF_FRAME":"TEME","TLE_LINE1":"1 47912U 21021BE  22113.37678779  .00000130  00000-0  27671-4 0  9993","EPOCH":"2022-04-23T09:02:34.465056","EPHEMERIS_TYPE":"0","PERIAPSIS":"545.965","FILE":"3412883","ELEMENT_SET_NO":"999","OBJECT_TYPE":"PAYLOAD","ARG_OF_PERICENTER":"40.0133","MEAN_MOTION_DOT":"0.00000130","MEAN_ANOMALY":"320.0991","RCS_SIZE":"LARGE","PERIOD":"95.593","ECCENTRICITY":"0.00018460","GP_ID":"201880747","APOAPSIS":"548.522","COUNTRY_CODE":"US","OBJECT_NAME":"STARLINK-2372","MEAN_ELEMENT_THEORY":"SGP4","TLE_LINE2":"2 47912  53.0558 149.6959 0001846  40.0133 320.0991 15.06390171 62560","OBJECT_ID":"2021-021BE","LAUNCH_DATE":"2021-03-14","NORAD_CAT_ID":"47912","REV_AT_EPOCH":"6256","SEMIMAJOR_AXIS":"6925.379","CENTER_NAME":"EARTH","SITE":"AFETR","RA_OF_ASC_NODE":"149.6959","DECAY_DATE":null,"BSTAR":"0.00002767100000","CLASSIFICATION_TYPE":"U","MEAN_MOTION_DDOT":"0.0000000000000"},{"ECCENTRICITY":"0.00021750","GP_ID":"201885177","TLE_LINE2":"2 47913  53.0553 158.6926 0002175  33.2411 326.8714 15.06386202 62139","MEAN_ELEMENT_THEORY":"SGP4","OBJECT_NAME":"STARLINK-2374","APOAPSIS":"548.762","COUNTRY_CODE":"US","NORAD_CAT_ID":"47913","LAUNCH_DATE":"2021-03-14","OBJECT_ID":"2021-021BF","SEMIMAJOR_AXIS":"6925.391","REV_AT_EPOCH":"6213","SITE":"AFETR","CENTER_NAME":"EARTH","MEAN_MOTION_DDOT":"0.0000000000000","BSTAR":"-0.00005647000000","CLASSIFICATION_TYPE":"U","DECAY_DATE":null,"RA_OF_ASC_NODE":"158.6926","MEAN_MOTION":"15.06386202","TIME_SYSTEM":"UTC","INCLINATION":"53.0553","TLE_LINE1":"1 47913U 21021BF  22113.60345448 -.00001122  00000-0 -56470-4 0  9997","REF_FRAME":"TEME","EPOCH":"2022-04-23T14:28:58.467072","PERIAPSIS":"545.750","EPHEMERIS_TYPE":"0","OBJECT_TYPE":"PAYLOAD","ELEMENT_SET_NO":"999","FILE":"3412917","MEAN_ANOMALY":"326.8714","MEAN_MOTION_DOT":"-0.00001122","ARG_OF_PERICENTER":"33.2411","PERIOD":"95.593","RCS_SIZE":"LARGE"},{"MEAN_MOTION":"15.06386457","TIME_SYSTEM":"UTC","INCLINATION":"53.0547","TLE_LINE1":"1 47914U 21021BG  22113.46802370 -.00001540  00000-0 -84532-4 0  9998","REF_FRAME":"TEME","EPOCH":"2022-04-23T11:13:57.247680","PERIAPSIS":"545.973","EPHEMERIS_TYPE":"0","OBJECT_TYPE":"PAYLOAD","FILE":"3412883","ELEMENT_SET_NO":"999","MEAN_ANOMALY":"315.8764","MEAN_MOTION_DOT":"-0.00001540","ARG_OF_PERICENTER":"44.2373","PERIOD":"95.593","RCS_SIZE":"LARGE","GP_ID":"201881248","ECCENTRICITY":"0.00018510","TLE_LINE2":"2 47914  53.0547 159.2909 0001851  44.2373 315.8764 15.06386457 62595","OBJECT_NAME":"STARLINK-2375","MEAN_ELEMENT_THEORY":"SGP4","APOAPSIS":"548.537","COUNTRY_CODE":"US","NORAD_CAT_ID":"47914","LAUNCH_DATE":"2021-03-14","OBJECT_ID":"2021-021BG","SEMIMAJOR_AXIS":"6925.390","REV_AT_EPOCH":"6259","SITE":"AFETR","CENTER_NAME":"EARTH","MEAN_MOTION_DDOT":"0.0000000000000","BSTAR":"-0.00008453200000","CLASSIFICATION_TYPE":"U","RA_OF_ASC_NODE":"159.2909","DECAY_DATE":null},{"MEAN_MOTION":"15.06396464","INCLINATION":"53.0543","TIME_SYSTEM":"UTC","REF_FRAME":"TEME","TLE_LINE1":"1 47915U 21021BH  22113.53297742 -.00002510  00000-0 -14969-3 0  9992","EPOCH":"2022-04-23T12:47:29.249088","EPHEMERIS_TYPE":"0","PERIAPSIS":"546.171","FILE":"3412883","ELEMENT_SET_NO":"999","OBJECT_TYPE":"PAYLOAD","ARG_OF_PERICENTER":"57.1265","MEAN_ANOMALY":"302.9870","MEAN_MOTION_DOT":"-0.00002510","RCS_SIZE":"LARGE","PERIOD":"95.592","ECCENTRICITY":"0.00015210","GP_ID":"201881998","APOAPSIS":"548.278","COUNTRY_CODE":"US","MEAN_ELEMENT_THEORY":"SGP4","OBJECT_NAME":"STARLINK-2376","TLE_LINE2":"2 47915  53.0543 154.0072 0001521  57.1265 302.9870 15.06396464 62687","OBJECT_ID":"2021-021BH","LAUNCH_DATE":"2021-03-14","NORAD_CAT_ID":"47915","REV_AT_EPOCH":"6268","SEMIMAJOR_AXIS":"6925.359","CENTER_NAME":"EARTH","SITE":"AFETR","RA_OF_ASC_NODE":"154.0072","DECAY_DATE":null,"BSTAR":"-0.00014969000000","CLASSIFICATION_TYPE":"U","MEAN_MOTION_DDOT":"0.0000000000000"},{"SEMIMAJOR_AXIS":"6925.358","REV_AT_EPOCH":"6284","LAUNCH_DATE":"2021-03-14","NORAD_CAT_ID":"47916","OBJECT_ID":"2021-021BJ","MEAN_MOTION_DDOT":"0.0000000000000","DECAY_DATE":null,"RA_OF_ASC_NODE":"139.7081","CLASSIFICATION_TYPE":"U","BSTAR":"-0.00003068200000","SITE":"AFETR","CENTER_NAME":"EARTH","ECCENTRICITY":"0.00017950","GP_ID":"201880248","OBJECT_NAME":"STARLINK-2378","MEAN_ELEMENT_THEORY":"SGP4","TLE_LINE2":"2 47916  53.0548 139.7081 0001795  48.7382 311.3762 15.06396890 62847","COUNTRY_CODE":"US","APOAPSIS":"548.466","OBJECT_TYPE":"PAYLOAD","ELEMENT_SET_NO":"999","FILE":"3412883","EPHEMERIS_TYPE":"0","PERIAPSIS":"545.980","PERIOD":"95.592","RCS_SIZE":"LARGE","MEAN_ANOMALY":"311.3762","MEAN_MOTION_DOT":"-0.00000739","ARG_OF_PERICENTER":"48.7382","TIME_SYSTEM":"UTC","INCLINATION":"53.0548","MEAN_MOTION":"15.06396890","EPOCH":"2022-04-23T08:58:35.829984","TLE_LINE1":"1 47916U 21021BJ  22113.37402581 -.00000739  00000-0 -30682-4 0  9996","REF_FRAME":"TEME"},{"EPOCH":"2022-04-23T12:18:58.243104","REF_FRAME":"TEME","TLE_LINE1":"1 47917U 21021BK  22113.51317411 -.00002465  00000-0 -14667-3 0  9992","INCLINATION":"53.0528","TIME_SYSTEM":"UTC","MEAN_MOTION":"15.06385324","RCS_SIZE":"LARGE","PERIOD":"95.593","ARG_OF_PERICENTER":"49.1597","MEAN_MOTION_DOT":"-0.00002465","MEAN_ANOMALY":"310.9536","FILE":"3412883","ELEMENT_SET_NO":"999","OBJECT_TYPE":"PAYLOAD","EPHEMERIS_TYPE":"0","PERIAPSIS":"546.108","APOAPSIS":"548.410","COUNTRY_CODE":"US","OBJECT_NAME":"STARLINK-2397","MEAN_ELEMENT_THEORY":"SGP4","TLE_LINE2":"2 47917  53.0528 149.0895 0001662  49.1597 310.9536 15.06385324 62719","ECCENTRICITY":"0.00016620","GP_ID":"201880498","RA_OF_ASC_NODE":"149.0895","DECAY_DATE":null,"CLASSIFICATION_TYPE":"U","BSTAR":"-0.00014667000000","MEAN_MOTION_DDOT":"0.0000000000000","CENTER_NAME":"EARTH","SITE":"AFETR","REV_AT_EPOCH":"6271","SEMIMAJOR_AXIS":"6925.394","OBJECT_ID":"2021-021BK","NORAD_CAT_ID":"47917","LAUNCH_DATE":"2021-03-14"},{"OBJECT_NAME":"STARLINK-2398","MEAN_ELEMENT_THEORY":"SGP4","TLE_LINE2":"2 47918  53.0538 149.6531 0001757  48.5330 311.5810 15.06397194 62728","COUNTRY_CODE":"US","APOAPSIS":"548.439","ECCENTRICITY":"0.00017570","GP_ID":"201881748","SITE":"AFETR","CENTER_NAME":"EARTH","MEAN_MOTION_DDOT":"0.0000000000000","RA_OF_ASC_NODE":"149.6531","DECAY_DATE":null,"CLASSIFICATION_TYPE":"U","BSTAR":"0.00003024800000","NORAD_CAT_ID":"47918","LAUNCH_DATE":"2021-03-14","OBJECT_ID":"2021-021BL","SEMIMAJOR_AXIS":"6925.357","REV_AT_EPOCH":"6272","TLE_LINE1":"1 47918U 21021BL  22113.38784490  .00000169  00000-0  30248-4 0  9994","REF_FRAME":"TEME","EPOCH":"2022-04-23T09:18:29.799360","MEAN_MOTION":"15.06397194","TIME_SYSTEM":"UTC","INCLINATION":"53.0538","MEAN_ANOMALY":"311.5810","MEAN_MOTION_DOT":"0.00000169","ARG_OF_PERICENTER":"48.5330","PERIOD":"95.592","RCS_SIZE":"LARGE","EPHEMERIS_TYPE":"0","PERIAPSIS":"546.005","OBJECT_TYPE":"PAYLOAD","ELEMENT_SET_NO":"999","FILE":"3412883"},{"ECCENTRICITY":"0.00021020","GP_ID":"201881499","TLE_LINE2":"2 47919  53.0529 159.1085 0002102  30.5648 329.5463 15.06399511 62589","MEAN_ELEMENT_THEORY":"SGP4","OBJECT_NAME":"STARLINK-2405","COUNTRY_CODE":"US","APOAPSIS":"548.671","SEMIMAJOR_AXIS":"6925.350","REV_AT_EPOCH":"6258","NORAD_CAT_ID":"47919","LAUNCH_DATE":"2021-03-14","OBJECT_ID":"2021-021BM","MEAN_MOTION_DDOT":"0.0000000000000","CLASSIFICATION_TYPE":"U","BSTAR":"-0.00007072600000","RA_OF_ASC_NODE":"159.1085","DECAY_DATE":null,"SITE":"AFETR","CENTER_NAME":"EARTH","TIME_SYSTEM":"UTC","INCLINATION":"53.0529","MEAN_MOTION":"15.06399511","EPOCH":"2022-04-23T12:07:01.171488","TLE_LINE1":"1 47919U 21021BM  22113.50487467 -.00001335  00000-0 -70726-4 0  9996","REF_FRAME":"TEME","OBJECT_TYPE":"PAYLOAD","ELEMENT_SET_NO":"999","FILE":"3412883","PERIAPSIS":"545.759","EPHEMERIS_TYPE":"0","PERIOD":"95.592","RCS_SIZE":"LARGE","MEAN_ANOMALY":"329.5463","MEAN_MOTION_DOT":"-0.00001335","ARG_OF_PERICENTER":"30.5648"},{"TLE_LINE1":"1 47977U 21024A   22113.51362744 -.00000139  00000-0  96063-5 0  9997","REF_FRAME":"TEME","EPOCH":"2022-04-23T12:19:37.410816","MEAN_MOTION":"15.06391587","TIME_SYSTEM":"UTC","INCLINATION":"53.0567","MEAN_ANOMALY":"297.9616","MEAN_MOTION_DOT":"-0.00000139","ARG_OF_PERICENTER":"62.1550","PERIOD":"95.593","RCS_SIZE":"LARGE","PERIAPSIS":"546.028","EPHEMERIS_TYPE":"0","OBJECT_TYPE":"PAYLOAD","FILE":"3412883","ELEMENT_SET_NO":"999","TLE_LINE2":"2 47977  53.0567 204.0779 0001749  62.1550 297.9616 15.06391587 61250","MEAN_ELEMENT_THEORY":"SGP4","OBJECT_NAME":"STARLINK-2087","COUNTRY_CODE":"US","APOAPSIS":"548.451","GP_ID":"201881255","ECCENTRICITY":"0.00017490","SITE":"AFETR","CENTER_NAME":"EARTH","MEAN_MOTION_DDOT":"0.0000000000000","BSTAR":"0.00000960630000","CLASSIFICATION_TYPE":"U","DECAY_DATE":null,"RA_OF_ASC_NODE":"204.0779","LAUNCH_DATE":"2021-03-24","NORAD_CAT_ID":"47977","OBJECT_ID":"2021-024A","SEMIMAJOR_AXIS":"6925.374","REV_AT_EPOCH":"6125"},{"OBJECT_TYPE":"PAYLOAD","ELEMENT_SET_NO":"999","FILE":"3412883","EPHEMERIS_TYPE":"0","PERIAPSIS":"546.102","PERIOD":"95.593","RCS_SIZE":"LARGE","MEAN_MOTION_DOT":"-0.00002287","MEAN_ANOMALY":"299.8542","ARG_OF_PERICENTER":"60.2612","TIME_SYSTEM":"UTC","INCLINATION":"53.0528","MEAN_MOTION":"15.06387657","EPOCH":"2022-04-23T12:50:08.518848","TLE_LINE1":"1 47978U 21024B   22113.53482082 -.00002287  00000-0 -13475-3 0  9999","REF_FRAME":"TEME","SEMIMAJOR_AXIS":"6925.386","REV_AT_EPOCH":"6111","LAUNCH_DATE":"2021-03-24","NORAD_CAT_ID":"47978","OBJECT_ID":"2021-024B","MEAN_MOTION_DDOT":"0.0000000000000","RA_OF_ASC_NODE":"213.9790","DECAY_DATE":null,"BSTAR":"-0.00013475000000","CLASSIFICATION_TYPE":"U","SITE":"AFETR","CENTER_NAME":"EARTH","ECCENTRICITY":"0.00016600","GP_ID":"201882005","OBJECT_NAME":"STARLINK-1647","MEAN_ELEMENT_THEORY":"SGP4","TLE_LINE2":"2 47978  53.0528 213.9790 0001660  60.2612 299.8542 15.06387657 61117","APOAPSIS":"548.401","COUNTRY_CODE":"US"}];
